satname,norad_id,inclination_deg,eccentricity,mean_motion_rev_per_day,perigee_km,apogee_km,l1,l2
STARLINK-1008,44714,53.1539,0.0002045,15.46720585,424.93564789089396,427.7186737326656,1 44714U 19074B   26135.25667628  .00009911  00000+0  20333-3 0  9993,2 44714  53.1539 225.9114 0002045  22.1364 337.9732 15.46720585359117
STARLINK-1012,44718,53.1585,0.000177,15.4692855,424.5130154422859,426.9215798636551,1 44718U 19074F   26135.25819439  .00012929  00000+0  26070-3 0  9993,2 44718  53.1585 226.2184 0001770  17.4003 342.7065 15.46928550359108
STARLINK-1017,44723,53.0494,0.0004238,15.29698021,473.809212107446,479.61938406770514,1 44723U 19074L   26135.23488516  .00020449  00000+0  71138-3 0  9996,2 44723  53.0494 223.0515 0004238 318.5051  41.5626 15.29698021359133
STARLINK-1020,44725,53.1579,0.0002213,15.51240996,411.5987484150146,414.60455064129474,1 44725U 19074N   26135.29121976  .00038126  00000+0  64468-3 0  9997,2 44725  53.1579 250.9514 0002213   0.5603 359.5409 15.51240996358746
STARLINK-1036,44741,53.0437,0.0002228,15.66785424,366.6057192746757,369.6118463955063,1 44741U 19074AE  26135.26898263  .00027946  00000+0  26435-3 0  9992,2 44741  53.0437 223.0711 0002228 273.2035  86.8725 15.66785424359131
STARLINK-1039,44744,53.0622,0.0001709,15.2698858,483.64771238738376,485.993471292275,1 44744U 19074AH  26134.76434281  .00026590  00000+0  99989-3 0  9993,2 44744  53.0622 270.1378 0001709 341.6017  18.4919 15.26988580358437
STARLINK-1042,44747,53.041,0.0003266,15.52983905,405.8031492469463,410.23586667794643,1 44747U 19074AL  26135.25778503  .00012857  00000+0  20979-3 0  9993,2 44747  53.0410 134.5646 0003266  35.8209 324.3019 15.52983905360406
STARLINK-1043,44748,53.0503,0.0002092,15.58272061,391.2413489926421,394.07424953665395,1 44748U 19074AM  26135.26655747  .00022877  00000+0  30240-3 0  9994,2 44748  53.0503 232.1679 0002092 315.6056  44.4788 15.58272061359014
STARLINK-1046,44751,53.0499,0.0005514,15.52206246,406.5427693260026,414.02904210642555,1 44751U 19074AQ  26135.31272110  .00041626  00000+0  67870-3 0  9995,2 44751  53.0499 252.2332 0005514 354.3468   5.7478 15.52206246358730
STARLINK-1047,44752,53.0682,0.0003491,15.339588,461.6262986577576,466.4034891100664,1 44752U 19074AR  26135.30633479  .00005238  00000+0  16834-3 0  9997,2 44752  53.0682 194.4424 0003491  71.1831 288.9549 15.33958800359569
STARLINK-1048,44753,53.0455,0.0006103,15.64922969,369.3398087139067,377.5808083887241,1 44753U 19074AS  26134.46827872  .00033220  00000+0  33697-3 0  9994,2 44753  53.0455 208.6883 0006103 338.5937  21.4821 15.64922969359266
STARLINK-1063,44768,53.1566,4.29e-05,15.46675094,426.1686654182404,426.75249989083113,1 44768U 19074BH  26135.26890018  .00030896  00000+0  61507-3 0  9998,2 44768  53.1566 266.8636 0000429  77.3257 282.7798 15.46675094358556
STARLINK-1067,44771,53.044,0.0005553,15.71225417,351.6545632444213,359.1328224318877,1 44771U 19074BL  26134.69631552  .00045799  00000+0  35727-3 0  9997,2 44771  53.0440 240.6159 0005553 296.7559  63.2889 15.71225417358848
STARLINK-1068,44772,53.0443,0.0001978,15.72103789,351.5539398706833,354.21673230683973,1 44772U 19074BM  26135.28468188  .00037922  00000+0  28633-3 0  9994,2 44772  53.0443 211.4825 0001978  59.3314 300.7898 15.72103789359294
STARLINK-1114,44927,53.0435,0.0001222,15.61738559,381.8087696683824,383.46110232954015,1 44927U 20001P   26135.21440432  .00033431  00000+0  38423-3 0  9992,2 44927  53.0435   7.1483 0001222  65.2071 294.9069 15.61738559350455
STARLINK-1123,44930,53.1465,0.000256,15.54450507,402.0142450451058,405.4865713981162,1 44930U 20001S   26135.26785002  .00046202  00000+0  69380-3 0  9992,2 44930  53.1465  32.3147 0002560 173.6059 186.4986 15.54450507350118
STARLINK-1094,44941,53.1557,0.0001809,15.51233596,411.8947084682686,414.35178642579467,1 44941U 20001AD  26135.24051770  .00059890  00000+0  10058-2 0  9994,2 44941  53.1557   6.8774 0001809 207.6515 152.4399 15.51233596350478
STARLINK-1122,44949,53.1577,0.0001537,15.50832872,413.24907559626627,415.3370686004291,1 44949U 20001AM  26133.70029741  .00050648  00000+0  86502-3 0  9994,2 44949  53.1577  14.8096 0001537 188.0751 172.0234 15.50832872350226
STARLINK-1080,44961,53.047,0.0001786,15.58160437,391.7718392882407,394.1904826953469,1 44961U 20001AZ  26134.97039442  .00062835  00000+0  81859-3 0  9998,2 44961  53.0470 328.7540 0001786 283.5789  76.5023 15.58160437350975
STARLINK-1090,44968,53.1514,0.0001137,15.47501506,423.2643875488484,424.8112020971912,1 44968U 20001BG  26135.11446941  .00037556  00000+0  72424-3 0  9998,2 44968  53.1514 355.1600 0001137 167.2100 192.8937 15.47501506350620
STARLINK-1132,45044,53.1525,5.72e-05,15.52298414,409.62891140927695,410.4054762490514,1 45044U 20006A   26134.71528718  .00049771  00000+0  80698-3 0  9991,2 45044  53.1525 298.9638 0000572 128.0163 232.0899 15.52298414347154
STARLINK-1131,45047,53.1597,0.0001144,15.49238998,418.17343758886,419.72861132885646,1 45047U 20006D   26134.55145878  .00051927  00000+0  93779-3 0  9998,2 45047  53.1597 332.0204 0001144 246.9885 113.1004 15.49238998346672
STARLINK-1134,45048,53.0278,0.0005117,15.52987241,404.53731833629354,411.4822609608191,1 45048U 20006E   26134.73480076  .00068218  00000+0  10732-2 0  9999,2 45048  53.0278 282.1638 0005117   3.9510 356.1538 15.52987241347379
STARLINK-1156,45054,53.1596,0.0001548,15.32970199,465.8965923796777,468.0158332383644,1 45054U 20006L   26134.95378750  .00032488  00000+0  10131-2 0  9998,2 45054  53.1596 332.8454 0001548 243.3873 116.6970 15.32970199346690
STARLINK-1166,45060,53.0474,0.0001161,15.55645996,399.48847489152377,401.0624222620827,1 45060U 20006S   26135.28543807  .00053098  00000+0  76152-3 0  9995,2 45060  53.0474 312.8175 0001161 252.5629 107.5255 15.55645996346998
STARLINK-1169,45061,53.1564,0.000331,15.35978227,455.7536671801681,460.27920075345446,1 45061U 20006T   26134.25583689  .00036352  00000+0  10287-2 0  9994,2 45061  53.1564 335.2362 0003310 196.0621 164.0277 15.35978227346603
STARLINK-1171,45062,53.0423,0.0001826,15.71231209,354.1476053535589,356.60668471932695,1 45062U 20006U   26134.70111324  .00044129  00000+0  34462-3 0  9991,2 45062  53.0423 284.2557 0001826 204.7697 155.3232 15.71231209347344
STARLINK-1133,45064,53.1586,0.0001762,15.33057705,465.4896749690588,467.90179402469585,1 45064U 20006W   26134.85973790  .00029338  00000+0  91385-3 0  9994,2 45064  53.1586 310.0674 0001762 273.8095  86.2705 15.33057705347019
STARLINK-1167,45071,53.1562,0.0002372,15.35195571,458.7175700889766,461.9617434149395,1 45071U 20006AD  26134.50736431  .00031870  00000+0  92664-3 0  9998,2 45071  53.1562 311.1696 0002372 194.0842 166.0095 15.35195571346967
STARLINK-1168,45072,53.1574,0.0001578,15.3304257,465.6606632265466,467.82090665547366,1 45072U 20006AE  26133.73294787  .00028113  00000+0  87673-3 0  9996,2 45072  53.1574 315.5376 0001578 261.3236  98.7587 15.33042570346837
STARLINK-1172,45074,53.1563,0.000229,15.36222877,455.7253108489731,458.8559367006619,1 45074U 20006AG  26134.87135966  .00030916  00000+0  87036-3 0  9994,2 45074  53.1563 308.9823 0002290 206.1466 153.9422 15.36222877347021
STARLINK-1153,45080,53.1591,0.0003137,15.35255213,458.01737240578586,462.307721541556,1 45080U 20006AN  26134.88183772  .00019609  00000+0  57418-3 0  9997,2 45080  53.1591 309.3384 0003137 216.4503 143.6286 15.35255213347026
STARLINK-1151,45081,53.0494,0.0002311,15.74236234,345.25131074667115,348.3595791447251,1 45081U 20006AP  26134.65645895  .00051963  00000+0  35612-3 0  9993,2 45081  53.0494 273.7407 0002311 240.9714 119.1073 15.74236234347484
STARLINK-1185,45087,53.1607,0.0002138,15.43326026,434.84423186732874,437.75808562400834,1 45087U 20006AV  26134.69818193  .00021390  00000+0  48053-3 0  9990,2 45087  53.1607 291.7379 0002138 280.1348  79.9417 15.43326026347256
STARLINK-1183,45088,53.1595,0.0001169,15.32886554,466.4050007783726,468.00544178970995,1 45088U 20006AW  26133.44869465  .00023511  00000+0  73914-3 0  9992,2 45088  53.1595 301.4448 0001169 283.6120  76.4752 15.32886554347000
STARLINK-1152,45096,53.0367,0.0002534,15.46137235,426.3138956286739,429.763265412882,1 45096U 20006BE  26134.62370138  .00038222  00000+0  77220-3 0  9995,2 45096  53.0367 253.5860 0002534  11.6240 348.4824 15.46137235347764
STARLINK-1184,45098,53.0527,0.0002645,15.13262717,524.4316353571039,528.0840602315857,1 45098U 20006BG  26134.50909628  .00012850  00000+0  72964-3 0  9995,2 45098  53.0527 307.4335 0002645 342.2751  17.8148 15.13262717346991
STARLINK-1193,45100,53.0481,0.0003592,15.6553921,369.263907153505,374.112981752799,1 45100U 20006BJ  26134.65814590  .00031911  00000+0  31631-3 0  9993,2 45100  53.0481 268.5973 0003592 230.4537 129.6161 15.65539210347553
STARLINK-1143,45179,53.0402,4.51e-05,15.80529656,328.6393078577812,329.24428636527955,1 45179U 20012B   26134.01198316  .00146048  00000+0  74254-3 0  9993,2 45179  53.0402   6.2331 0000451 262.1711  97.9258 15.80529656346197
STARLINK-1202,45183,53.1558,0.0003019,15.3278631,465.43697536333,469.5703732024622,1 45183U 20012F   26135.28115270  .00026712  00000+0  84044-3 0  9999,2 45183  53.1558  89.6205 0003019  83.9416 276.1930 15.32786310345156
STARLINK-1216,45185,53.1567,0.0003159,15.33060942,464.5238198066709,468.84837904088727,1 45185U 20012H   26135.26458944  .00025899  00000+0  80832-3 0  9993,2 45185  53.1567  89.6001 0003159  85.3904 274.7458 15.33060942345094
STARLINK-1225,45187,53.1577,0.0002847,15.32980871,464.9756552439494,468.87323323029705,1 45187U 20012K   26135.26252215  .00025630  00000+0  80209-3 0  9999,2 45187  53.1577  90.0650 0002847  82.9901 277.1425 15.32980871345133
STARLINK-1230,45189,53.1567,0.0003121,15.32935655,464.9226607550736,469.1954321272615,1 45189U 20012M   26135.27244266  .00027070  00000+0  84755-3 0  9999,2 45189  53.1567  90.0798 0003121  82.3149 277.8208 15.32935655342369
